NORAD_CAT_ID,OBJECT_NAME,OBJECT_TYPE,EPOCH,MEAN_MOTION,ECCENTRICITY,INCLINATION,RA_OF_ASC_NODE,ARG_OF_PERICENTER,MEAN_ANOMALY,BSTAR,MEAN_MOTION_DOT,MEAN_MOTION_DDOT,TLE_LINE0,TLE_LINE1,TLE_LINE2,SEMIMAJOR_AXIS,PERIOD,APOGEE,PERIGEE,DECAYED
51736.0,STARLINK-3447,PAYLOAD,2022-12-15 01:09:03,15.08831016,0.0002746,53.2151,219.225,28.9033,331.2111,-2.7604e-05,-7.28e-06,0.0,0 STARLINK-3447,1 51736U 22016Y   22349.04796206 -.00000728  00000-0 -27604-4 0  9999,2 51736  53.2151 219.2250 0002746  28.9033 331.2111 15.08831016 46450,6917.908,95.438,541.673,537.873,0.0
51736.0,STARLINK-3447,PAYLOAD,2022-12-15 12:16:45,15.08837317,0.0002878999999999,53.2158,217.1438,29.2652,330.8501,7.159899999999999e-05,8.51e-06,0.0,0 STARLINK-3447,1 51736U 22016Y   22349.51164113  .00000851  00000-0  71599-4 0  9994,2 51736  53.2158 217.1438 0002879  29.2652 330.8501 15.08837317 45390,6917.889,95.438,541.745,537.762,0.0
51736.0,STARLINK-3447,PAYLOAD,2022-12-15 15:27:31,15.08841116,0.0002851,53.2156,216.5487,30.0896,330.0259,0.00012937,1.771e-05,0.0,0 STARLINK-3447,1 51736U 22016Y   22349.64411968  .00001771  00000-0  12937-3 0  9993,2 51736  53.2156 216.5487 0002851  30.0896 330.0259 15.08841116 46547,6917.877,95.437,541.714,537.77,0.0
51736.0,STARLINK-3447,PAYLOAD,2022-12-15 20:13:41,15.08845004,0.0002837,53.2158,215.6567,30.2704,329.8451,0.00018621,2.677e-05,0.0,0 STARLINK-3447,1 51736U 22016Y   22349.84283799  .00002677  00000-0  18621-3 0  9996,2 51736  53.2158 215.6567 0002837  30.2704 329.8451 15.08845004 45440,6917.865,95.437,541.693,537.7669999999998,0.0
51736.0,STARLINK-3447,PAYLOAD,2022-12-16 10:32:09,15.08853501,0.0002861,53.2156,212.9801,30.746,329.3699,0.00036135,5.469e-05,0.0,0 STARLINK-3447,1 51736U 22016Y   22350.43899389  .00005469  00000-0  36135-3 0  9993,2 51736  53.2156 212.9801 0002861  30.7460 329.3699 15.08853501 45530,6917.839,95.437,541.683,537.725,0.0
51736.0,STARLINK-3447,PAYLOAD,2022-12-16 20:04:28,15.08839725,0.0002918,53.2157,211.196,29.3054,330.8101,3.4987e-05,2.68e-06,0.0,0 STARLINK-3447,1 51736U 22016Y   22350.83643791  .00000268  00000-0  34987-4 0  9997,2 51736  53.2157 211.1960 0002918  29.3054 330.8101 15.08839725 46723,6917.880999999999,95.438,541.765,537.7280000000002,0.0
51736.0,STARLINK-3447,PAYLOAD,2022-12-17 00:50:37,15.08834404,0.0002856,53.2158,210.3041,30.1122,330.0034,-0.00011275,-2.082e-05,0.0,0 STARLINK-3447,1 51736U 22016Y   22351.03516027 -.00002082  00000-0 -11275-3 0  9993,2 51736  53.2158 210.3041 0002856  30.1122 330.0034 15.08834404 45626,6917.897,95.438,541.738,537.7869999999998,0.0
51736.0,STARLINK-3447,PAYLOAD,2022-12-17 19:55:15,15.08839766,0.0002877,53.2164,206.736,30.2992,329.8166,6.283e-05,7.12e-06,0.0,0 STARLINK-3447,1 51736U 22016Y   22351.83004064  .00000712  00000-0  62830-4 0  9994,2 51736  53.2164 206.7360 0002877  30.2992 329.8166 15.08839766 45746,6917.880999999999,95.438,541.736,537.756,0.0
51736.0,STARLINK-3447,PAYLOAD,2022-12-18 00:41:24,15.08839145,0.0002843,53.2169,205.8443,28.547,331.5677,3.208e-05,2.22e-06,0.0,0 STARLINK-3447,1 51736U 22016Y   22352.02876090  .00000222  00000-0  32080-4 0  9992,2 51736  53.2169 205.8443 0002843  28.5470 331.5677 15.08839145 46904,6917.8830000000025,95.438,541.715,537.781,0.0
51736.0,STARLINK-3447,PAYLOAD,2022-12-18 07:02:58,15.088281599999998,0.0002865,53.2163,204.6542,30.9436,329.1724,-8.5597e-05,-1.65e-05,0.0,0 STARLINK-3447,1 51736U 22016Y   22352.29373230 -.00001650  00000-0 -85597-4 0  9998,2 51736  53.2163 204.6542 0002865  30.9436 329.1724 15.08828160 45818,6917.917,95.438,541.764,537.8,0.0
51736.0,STARLINK-3447,PAYLOAD,2022-12-18 21:21:26,15.08831304,0.0002752,53.2167,201.9773,30.5553,329.5599,2.683e-05,1.38e-06,0.0,0 STARLINK-3447,1 51736U 22016Y   22352.88989005  .00000138  00000-0  26830-4 0  9999,2 51736  53.2167 201.9773 0002752  30.5553 329.5599 15.08831304 45907,6917.906999999997,95.438,541.6759999999998,537.868,0.0
51736.0,STARLINK-3447,PAYLOAD,2022-12-19 06:53:45,15.08832085,0.000276,53.2166,200.1932,31.583,328.5327,0.00010625,1.403e-05,0.0,0 STARLINK-3447,1 51736U 22016Y   22353.28733135  .00001403  00000-0  10625-3 0  9995,2 51736  53.2166 200.1932 0002760  31.5830 328.5327 15.08832085 47099,6917.905,95.438,541.679,537.86,0.0
51736.0,STARLINK-3447,PAYLOAD,2022-12-19 18:01:27,15.08841038,0.0002768,53.2168,198.1113,32.243,327.8731,8.899e-05,1.128e-05,0.0,0 STARLINK-3447,1 51736U 22016Y   22353.75100754  .00001128  00000-0  88990-4 0  9997,2 51736  53.2168 198.1113 0002768  32.2430 327.8731 15.08841038 46032,6917.877,95.437,541.6569999999998,537.827,0.0
51736.0,STARLINK-3447,PAYLOAD,2022-12-19 21:12:13,15.08843239,0.0002786,53.2167,197.5167,32.6727,327.4437,0.00011276,1.507e-05,0.0,0 STARLINK-3447,1 51736U 22016Y   22353.88348640  .00001507  00000-0  11276-3 0  9992,2 51736  53.2167 197.5167 0002786  32.6727 327.4437 15.08843239 47187,6917.87,95.437,541.663,537.808,0.0
51736.0,STARLINK-3447,PAYLOAD,2022-12-20 08:19:55,15.08844084,0.0002801,53.2165,195.4352,32.8785,327.2381,0.00025187,3.723e-05,0.0,0 STARLINK-3447,1 51736U 22016Y   22354.34716447  .00003723  00000-0  25187-3 0  9996,2 51736  53.2165 195.4352 0002801  32.8785 327.2381 15.08844084 46120,6917.868,95.437,541.6709999999998,537.795,0.0
51736.0,STARLINK-3447,PAYLOAD,2022-12-20 19:27:37,15.08837479,0.0002893,53.2155,193.3536,31.952,328.1648,6.0829e-05,6.8e-06,0.0,0 STARLINK-3447,1 51736U 22016Y   22354.81084894  .00000680  00000-0  60829-4 0  9994,2 51736  53.2155 193.3536 0002893  31.9520 328.1648 15.08837479 47327,6917.888000000001,95.438,541.754,537.752,0.0
51736.0,STARLINK-3447,PAYLOAD,2022-12-21 12:56:51,15.08842153,0.0002866,53.2151,190.0841,33.3186,326.7986,4.7342e-05,4.65e-06,0.0,0 STARLINK-3447,1 51736U 22016Y   22355.53948618  .00000465  00000-0  47342-4 0  9993,2 51736  53.2151 190.0841 0002866  33.3186 326.7986 15.08842153 46301,6917.874,95.437,541.721,537.756,0.0
51736.0,STARLINK-3447,PAYLOAD,2022-12-21 20:53:47,15.08845212,0.0002826,53.2148,188.5963,35.3776,324.7404,0.00010915,1.449e-05,0.0,0 STARLINK-3447,1 51736U 22016Y   22355.87068473  .00001449  00000-0  10915-3 0  9990,2 51736  53.2148 188.5963 0002826  35.3776 324.7404 15.08845212 47489,6917.864000000001,95.437,541.684,537.774,0.0
51736.0,STARLINK-3447,PAYLOAD,2022-12-22 06:26:05,15.08846255,0.0002925,53.2149,186.8129,34.9984,325.12,0.0001469,2.051e-05,0.0,0 STARLINK-3447,1 51736U 22016Y   22356.26812404  .00002051  00000-0  14690-3 0  9999,2 51736  53.2149 186.8129 0002925  34.9984 325.1200 15.08846255 46410,6917.861,95.437,541.75,537.703,0.0
51736.0,STARLINK-3447,PAYLOAD,2022-12-22 12:47:42,15.08771576,0.0003334,53.2154,185.6229,46.0476,314.079,0.0024856,0.0003942,0.0,0 STARLINK-3447,1 51736U 22016Y   22356.53312869  .00039420  00000-0  24856-2 0  9993,2 51736  53.2154 185.6229 0003334  46.0476 314.0790 15.08771576 47582,6918.09,95.442,542.261,537.648,0.0
51736.0,STARLINK-3447,PAYLOAD,2022-12-22 17:33:47,15.08843999,0.0002829,53.2153,184.7296,39.4294,320.6903,5.7983e-05,6.34e-06,0.0,0 STARLINK-3447,1 51736U 22016Y   22356.73180410  .00000634  00000-0  57983-4 0  9994,2 51736  53.2153 184.7296 0002829  39.4294 320.6903 15.08843999 47619,6917.868,95.437,541.69,537.776,0.0
51736.0,STARLINK-3447,PAYLOAD,2022-12-23 12:38:26,15.0883458,0.0003026,53.2149,181.1618,36.9665,323.1535,2.1451e-05,5.3e-07,0.0,0 STARLINK-3447,1 51736U 22016Y   22357.52669149  .00000053  00000-0  21451-4 0  9999,2 51736  53.2149 181.1618 0003026  36.9665 323.1535 15.08834580 47735,6917.897,95.438,541.855,537.669,0.0
51736.0,STARLINK-3447,PAYLOAD,2022-12-23 15:49:12,15.08835117,0.0002979,53.2161,180.5667,37.6497,322.4703,3.7207e-05,3.04e-06,0.0,0 STARLINK-3447,1 51736U 22016Y   22357.65917230  .00000304  00000-0  37207-4 0  9995,2 51736  53.2161 180.5667 0002979  37.6497 322.4703 15.08835117 46626,6917.895,95.438,541.821,537.6990000000002,0.0
51736.0,STARLINK-3447,PAYLOAD,2022-12-24 12:29:13,15.08839536,0.0003048,53.2163,176.7011,37.3827,322.7376,4.0853e-05,3.62e-06,0.0,0 STARLINK-3447,1 51736U 22016Y   22358.52028983  .00000362  00000-0  40853-4 0  9995,2 51736  53.2163 176.7011 0003048  37.3827 322.7376 15.08839536 46752,6917.882,95.438,541.855,537.638,0.0
51736.0,STARLINK-3447,PAYLOAD,2022-12-24 18:50:45,15.08841392,0.0003028,53.2162,175.5114,38.499,321.6217,4.7379e-05,4.66e-06,0.0,0 STARLINK-3447,1 51736U 22016Y   22358.78524819  .00000466  00000-0  47379-4 0  9997,2 51736  53.2162 175.5114 0003028  38.4990 321.6217 15.08841392 47928,6917.876,95.437,541.836,537.646,0.0
51736.0,STARLINK-3447,PAYLOAD,2022-12-25 12:20:00,15.08834865,0.000306,53.2162,172.2403,40.0458,320.0759,7.1685e-05,8.52e-06,0.0,0 STARLINK-3447,1 51736U 22016Y   22359.51389295  .00000852  00000-0  71685-4 0  9992,2 51736  53.2162 172.2403 0003060  40.0458 320.0759 15.08834865 48031,6917.896,95.438,541.878,537.644,0.0
51736.0,STARLINK-3447,PAYLOAD,2022-12-25 18:41:33,15.0883065,0.0003074,53.2162,171.0507,40.4605,319.6616,3.0806e-05,2.02e-06,0.0,0 STARLINK-3447,1 51736U 22016Y   22359.77885814  .00000202  00000-0  30806-4 0  9997,2 51736  53.2162 171.0507 0003074  40.4605 319.6616 15.08830650 46948,6917.909000000002,95.438,541.901,537.6469999999998,0.0
51736.0,STARLINK-3447,PAYLOAD,2022-12-26 12:10:48,15.08833993,0.000304,53.2164,167.7804,41.0926,319.0295,2.1405e-05,5.2e-07,0.0,0 STARLINK-3447,1 51736U 22016Y   22360.50750056  .00000052  00000-0  21405-4 0  9997,2 51736  53.2164 167.7804 0003040  41.0926 319.0295 15.08833993 47051,6917.899,95.438,541.867,537.661,0.0
51736.0,STARLINK-3447,PAYLOAD,2022-12-26 18:32:20,15.08837481,0.0003064,53.2163,166.5909,41.4211,318.7013,4.7777e-05,4.72e-06,0.0,0 STARLINK-3447,1 51736U 22016Y   22360.77245851  .00000472  00000-0  47777-4 0  9994,2 51736  53.2163 166.5909 0003064  41.4211 318.7013 15.08837481 48220,6917.888000000001,95.438,541.873,537.633,0.0
